[
  {
    "OBJECT_NAME": "STARLINK-4145",
    "OBJECT_ID": "22083F",
    "EPOCH": "2025-11-11T07:11:58.277184",
    "MEAN_MOTION": 15.0883394,
    "ECCENTRICITY": 0.0001531,
    "INCLINATION": 53.2177,
    "RA_OF_ASC_NODE": 345.5933,
    "ARG_OF_PERICENTER": 94.4365,
    "MEAN_ANOMALY": 265.6802,
    "EPHEMERIS_TYPE": 0,
    "CLASSIFICATION_TYPE": "U",
    "NORAD_CAT_ID": 53137,
    "ELEMENT_SET_NO": 999,
    "REV_AT_EPOCH": 18334,
    "BSTAR": 0.00028305,
    "MEAN_MOTION_DOT": 4.219e-05,
    "MEAN_MOTION_DDOT": 0.0,
    "TLE_LINE1": "1 53137U 22083F   25315.29998006  .00004219  00000+0  28305-3 0  9999",
    "TLE_LINE2": "2 53137  53.2177 345.5933 0001531  94.4365 265.6802 15.08833940183348",
    "COMMENT": "Grouped by shell and plane from TLE"
  },
  {
    "OBJECT_NAME": "STARLINK-4141",
    "OBJECT_ID": "22083G",
    "EPOCH": "2025-11-11T07:10:00.746400",
    "MEAN_MOTION": 15.08835671,
    "ECCENTRICITY": 0.000117,
    "INCLINATION": 53.2176,
    "RA_OF_ASC_NODE": 340.7823,
    "ARG_OF_PERICENTER": 90.8111,
    "MEAN_ANOMALY": 269.3015,
    "EPHEMERIS_TYPE": 0,
    "CLASSIFICATION_TYPE": "U",
    "NORAD_CAT_ID": 53138,
    "ELEMENT_SET_NO": 999,
    "REV_AT_EPOCH": 18418,
    "BSTAR": 6.4362e-05,
    "MEAN_MOTION_DOT": 7.37e-06,
    "MEAN_MOTION_DDOT": 0.0,
    "TLE_LINE1": "1 53138U 22083G   25315.29861975  .00000737  00000+0  64362-4 0  9999",
    "TLE_LINE2": "2 53138  53.2176 340.7823 0001170  90.8111 269.3015 15.08835671184184",
    "COMMENT": "Grouped by shell and plane from TLE"
  },
  {
    "OBJECT_NAME": "STARLINK-4185",
    "OBJECT_ID": "22083H",
    "EPOCH": "2025-11-11T06:56:04.192224",
    "MEAN_MOTION": 15.08842781,
    "ECCENTRICITY": 0.0001454,
    "INCLINATION": 53.2187,
    "RA_OF_ASC_NODE": 345.6421,
    "ARG_OF_PERICENTER": 89.7408,
    "MEAN_ANOMALY": 270.3751,
    "EPHEMERIS_TYPE": 0,
    "CLASSIFICATION_TYPE": "U",
    "NORAD_CAT_ID": 53139,
    "ELEMENT_SET_NO": 999,
    "REV_AT_EPOCH": 18334,
    "BSTAR": 9.4944e-05,
    "MEAN_MOTION_DOT": 1.224e-05,
    "MEAN_MOTION_DDOT": 0.0,
    "TLE_LINE1": "1 53139U 22083H   25315.28893741  .00001224  00000+0  94944-4 0  9996",
    "TLE_LINE2": "2 53139  53.2187 345.6421 0001454  89.7408 270.3751 15.08842781183342",
    "COMMENT": "Grouped by shell and plane from TLE"
  },
  {
    "OBJECT_NAME": "STARLINK-4170",
    "OBJECT_ID": "22083J",
    "EPOCH": "2025-11-11T07:01:22.291104",
    "MEAN_MOTION": 15.08843601,
    "ECCENTRICITY": 0.0001583,
    "INCLINATION": 53.2195,
    "RA_OF_ASC_NODE": 345.626,
    "ARG_OF_PERICENTER": 104.9828,
    "MEAN_ANOMALY": 255.1339,
    "EPHEMERIS_TYPE": 0,
    "CLASSIFICATION_TYPE": "U",
    "NORAD_CAT_ID": 53140,
    "ELEMENT_SET_NO": 999,
    "REV_AT_EPOCH": 18334,
    "BSTAR": 0.0,
    "MEAN_MOTION_DOT": -3.8e-06,
    "MEAN_MOTION_DDOT": 0.0,
    "TLE_LINE1": "1 53140U 22083J   25315.29261911 -.00000380  00000+0 -57597-5 0  9995",
    "TLE_LINE2": "2 53140  53.2195 345.6260 0001583 104.9828 255.1339 15.08843601183348",
    "COMMENT": "Grouped by shell and plane from TLE"
  },
  {
    "OBJECT_NAME": "STARLINK-4103",
    "OBJECT_ID": "22083K",
    "EPOCH": "2025-11-11T06:34:52.648608",
    "MEAN_MOTION": 15.08840371,
    "ECCENTRICITY": 0.0001404,
    "INCLINATION": 53.2192,
    "RA_OF_ASC_NODE": 345.708,
    "ARG_OF_PERICENTER": 91.8206,
    "MEAN_ANOMALY": 268.2947,
    "EPHEMERIS_TYPE": 0,
    "CLASSIFICATION_TYPE": "U",
    "NORAD_CAT_ID": 53141,
    "ELEMENT_SET_NO": 999,
    "REV_AT_EPOCH": 18334,
    "BSTAR": 3.8548e-05,
    "MEAN_MOTION_DOT": 3.26e-06,
    "MEAN_MOTION_DDOT": 0.0,
    "TLE_LINE1": "1 53141U 22083K   25315.27422047  .00000326  00000+0  38548-4 0  9995",
    "TLE_LINE2": "2 53141  53.2192 345.7080 0001404  91.8206 268.2947 15.08840371183344",
    "COMMENT": "Grouped by shell and plane from TLE"
  },
  {
    "OBJECT_NAME": "STARLINK-4101",
    "OBJECT_ID": "22083L",
    "EPOCH": "2025-11-11T06:46:50.276640",
    "MEAN_MOTION": 15.08845253,
    "ECCENTRICITY": 0.0001328,
    "INCLINATION": 53.2177,
    "RA_OF_ASC_NODE": 345.6416,
    "ARG_OF_PERICENTER": 95.8995,
    "MEAN_ANOMALY": 264.2148,
    "EPHEMERIS_TYPE": 0,
    "CLASSIFICATION_TYPE": "U",
    "NORAD_CAT_ID": 53142,
    "ELEMENT_SET_NO": 999,
    "REV_AT_EPOCH": 18335,
    "BSTAR": 9.8559e-05,
    "MEAN_MOTION_DOT": 1.281e-05,
    "MEAN_MOTION_DDOT": 0.0,
    "TLE_LINE1": "1 53142U 22083L   25315.28252635  .00001281  00000+0  98559-4 0  9990",
    "TLE_LINE2": "2 53142  53.2177 345.6416 0001328  95.8995 264.2148 15.08845253183358",
    "COMMENT": "Grouped by shell and plane from TLE"
  },
  {
    "OBJECT_NAME": "STARLINK-4102",
    "OBJECT_ID": "22083M",
    "EPOCH": "2025-11-11T06:29:34.590336",
    "MEAN_MOTION": 15.08844863,
    "ECCENTRICITY": 0.0001304,
    "INCLINATION": 53.2187,
    "RA_OF_ASC_NODE": 345.7234,
    "ARG_OF_PERICENTER": 87.6678,
    "MEAN_ANOMALY": 272.4464,
    "EPHEMERIS_TYPE": 0,
    "CLASSIFICATION_TYPE": "U",
    "NORAD_CAT_ID": 53143,
    "ELEMENT_SET_NO": 999,
    "REV_AT_EPOCH": 18334,
    "BSTAR": 8.1507e-05,
    "MEAN_MOTION_DOT": 1.01e-05,
    "MEAN_MOTION_DDOT": 0.0,
    "TLE_LINE1": "1 53143U 22083M   25315.27053924  .00001010  00000+0  81507-4 0  9995",
    "TLE_LINE2": "2 53143  53.2187 345.7234 0001304  87.6678 272.4464 15.08844863183347",
    "COMMENT": "Grouped by shell and plane from TLE"
  },
  {
    "OBJECT_NAME": "STARLINK-4100",
    "OBJECT_ID": "22083N",
    "EPOCH": "2025-11-11T06:45:28.398816",
    "MEAN_MOTION": 15.08840963,
    "ECCENTRICITY": 0.0001564,
    "INCLINATION": 53.2184,
    "RA_OF_ASC_NODE": 345.6822,
    "ARG_OF_PERICENTER": 83.3355,
    "MEAN_ANOMALY": 276.7815,
    "EPHEMERIS_TYPE": 0,
    "CLASSIFICATION_TYPE": "U",
    "NORAD_CAT_ID": 53144,
    "ELEMENT_SET_NO": 999,
    "REV_AT_EPOCH": 18334,
    "BSTAR": 7.0707e-05,
    "MEAN_MOTION_DOT": 8.38e-06,
    "MEAN_MOTION_DDOT": 0.0,
    "TLE_LINE1": "1 53144U 22083N   25315.28157869  .00000838  00000+0  70707-4 0  9997",
    "TLE_LINE2": "2 53144  53.2184 345.6822 0001564  83.3355 276.7815 15.08840963183344",
    "COMMENT": "Grouped by shell and plane from TLE"
  },
  {
    "OBJECT_NAME": "STARLINK-4106",
    "OBJECT_ID": "22083P",
    "EPOCH": "2025-11-11T06:18:58.824576",
    "MEAN_MOTION": 15.08837067,
    "ECCENTRICITY": 0.0001442,
    "INCLINATION": 53.2202,
    "RA_OF_ASC_NODE": 345.7575,
    "ARG_OF_PERICENTER": 95.035,
    "MEAN_ANOMALY": 265.0807,
    "EPHEMERIS_TYPE": 0,
    "CLASSIFICATION_TYPE": "U",
    "NORAD_CAT_ID": 53145,
    "ELEMENT_SET_NO": 999,
    "REV_AT_EPOCH": 18334,
    "BSTAR": 1.9173e-05,
    "MEAN_MOTION_DOT": 1.7e-07,
    "MEAN_MOTION_DDOT": 0.0,
    "TLE_LINE1": "1 53145U 22083P   25315.26318084  .00000017  00000+0  19173-4 0  9993",
    "TLE_LINE2": "2 53145  53.2202 345.7575 0001442  95.0350 265.0807 15.08837067183345",
    "COMMENT": "Grouped by shell and plane from TLE"
  },
  {
    "OBJECT_NAME": "STARLINK-4094",
    "OBJECT_ID": "22083R",
    "EPOCH": "2025-11-11T06:13:41.022048",
    "MEAN_MOTION": 15.08847116,
    "ECCENTRICITY": 0.0001304,
    "INCLINATION": 53.2193,
    "RA_OF_ASC_NODE": 345.7732,
    "ARG_OF_PERICENTER": 99.0591,
    "MEAN_ANOMALY": 261.0549,
    "EPHEMERIS_TYPE": 0,
    "CLASSIFICATION_TYPE": "U",
    "NORAD_CAT_ID": 53147,
    "ELEMENT_SET_NO": 999,
    "REV_AT_EPOCH": 18399,
    "BSTAR": 0.00019209,
    "MEAN_MOTION_DOT": 2.771e-05,
    "MEAN_MOTION_DDOT": 0.0,
    "TLE_LINE1": "1 53147U 22083R   25315.25950257  .00002771  00000+0  19209-3 0  9996",
    "TLE_LINE2": "2 53147  53.2193 345.7732 0001304  99.0591 261.0549 15.08847116183995",
    "COMMENT": "Grouped by shell and plane from TLE"
  },
  {
    "OBJECT_NAME": "STARLINK-4205",
    "OBJECT_ID": "22083AU",
    "EPOCH": "2025-11-11T05:59:08.855520",
    "MEAN_MOTION": 15.08837418,
    "ECCENTRICITY": 0.0001286,
    "INCLINATION": 53.2186,
    "RA_OF_ASC_NODE": 345.7523,
    "ARG_OF_PERICENTER": 94.6228,
    "MEAN_ANOMALY": 265.4912,
    "EPHEMERIS_TYPE": 0,
    "CLASSIFICATION_TYPE": "U",
    "NORAD_CAT_ID": 53174,
    "ELEMENT_SET_NO": 999,
    "REV_AT_EPOCH": 18333,
    "BSTAR": 4.1913000000000003e-05,
    "MEAN_MOTION_DOT": 3.79e-06,
    "MEAN_MOTION_DDOT": 0.0,
    "TLE_LINE1": "1 53174U 22083AU  25315.24940805  .00000379  00000+0  41913-4 0  9993",
    "TLE_LINE2": "2 53174  53.2186 345.7523 0001286  94.6228 265.4912 15.08837418183336",
    "COMMENT": "Grouped by shell and plane from TLE"
  },
  {
    "OBJECT_NAME": "STARLINK-4292",
    "OBJECT_ID": "22083AV",
    "EPOCH": "2025-11-11T06:03:04.649760",
    "MEAN_MOTION": 15.08818143,
    "ECCENTRICITY": 0.0001103,
    "INCLINATION": 53.219,
    "RA_OF_ASC_NODE": 345.8066,
    "ARG_OF_PERICENTER": 83.5666,
    "MEAN_ANOMALY": 276.5452,
    "EPHEMERIS_TYPE": 0,
    "CLASSIFICATION_TYPE": "U",
    "NORAD_CAT_ID": 53175,
    "ELEMENT_SET_NO": 999,
    "REV_AT_EPOCH": 18333,
    "BSTAR": 0.00018162,
    "MEAN_MOTION_DOT": 2.602e-05,
    "MEAN_MOTION_DDOT": 0.0,
    "TLE_LINE1": "1 53175U 22083AV  25315.25213715  .00002602  00000+0  18162-3 0  9998",
    "TLE_LINE2": "2 53175  53.2190 345.8066 0001103  83.5666 276.5452 15.08818143183332",
    "COMMENT": "Grouped by shell and plane from TLE"
  },
  {
    "OBJECT_NAME": "STARLINK-4148",
    "OBJECT_ID": "22086BD",
    "EPOCH": "2025-11-11T05:57:46.618272",
    "MEAN_MOTION": 15.08837146,
    "ECCENTRICITY": 0.000133,
    "INCLINATION": 53.2177,
    "RA_OF_ASC_NODE": 345.8126,
    "ARG_OF_PERICENTER": 87.9368,
    "MEAN_ANOMALY": 272.1777,
    "EPHEMERIS_TYPE": 0,
    "CLASSIFICATION_TYPE": "U",
    "NORAD_CAT_ID": 53293,
    "ELEMENT_SET_NO": 999,
    "REV_AT_EPOCH": 18344,
    "BSTAR": 4.7785000000000004e-05,
    "MEAN_MOTION_DOT": 4.73e-06,
    "MEAN_MOTION_DDOT": 0.0,
    "TLE_LINE1": "1 53293U 22086BD  25315.24845623  .00000473  00000+0  47785-4 0  9998",
    "TLE_LINE2": "2 53293  53.2177 345.8126 0001330  87.9368 272.1777 15.08837146183442",
    "COMMENT": "Grouped by shell and plane from TLE"
  }
]